STARLINK-3250           
1 49749U 21115AB  26068.53259743  .00001308  00000+0  10026-3 0  9996
2 49749  53.2173 150.0725 0001164  99.4639 260.6485 15.08835062235502
SEDNA-2                 
1 63153U 25009DQ  26068.79893845  .00008085  00000+0  49393-3 0  9990
2 63153  97.4615 144.8075 0010309  53.0260 307.1912 15.10492622 63116
