[{"OBJECT_NAME":"STARLINK-3250","OBJECT_ID":"2021-115AB","EPOCH":"2026-03-09T12:46:56.417952","MEAN_MOTION":15.08835062,"ECCENTRICITY":0.00011649,"INCLINATION":53.2173,"RA_OF_ASC_NODE":150.0725,"ARG_OF_PERICENTER":99.4639,"MEAN_ANOMALY":260.6485,"EPHEMERIS_TYPE":0,"CLASSIFICATION_TYPE":"U","NORAD_CAT_ID":49749,"ELEMENT_SET_NO":999,"REV_AT_EPOCH":23550,"BSTAR":0.00010026165,"MEAN_MOTION_DOT":1.308e-5,"MEAN_MOTION_DDOT":0},{"OBJECT_NAME":"SEDNA-2","OBJECT_ID":"2025-009DQ","EPOCH":"2026-03-09T19:10:28.282944","MEAN_MOTION":15.10492622,"ECCENTRICITY":0.0010309,"INCLINATION":97.4615,"RA_OF_ASC_NODE":144.8075,"ARG_OF_PERICENTER":53.026,"MEAN_ANOMALY":307.1912,"EPHEMERIS_TYPE":0,"CLASSIFICATION_TYPE":"U","NORAD_CAT_ID":63153,"ELEMENT_SET_NO":999,"REV_AT_EPOCH":6311,"BSTAR":0.00049393403,"MEAN_MOTION_DOT":8.085e-5,"MEAN_MOTION_DDOT":0}]
